#dP2024  6 23  0  0  0.00000000      96 __u+U IGS20 FIT  IAC
## 2320      0.00000000   900.00000000 60484 0.0000000000000
+   54   G02G03G04G05G06G07G08G09G10G11G12G13G14G15G16G17G18
+        G19G20G21G22G23G24G25G26G27G28G29G30G31G32R01R02R03
+        R04R05R07R08R09R11R12R13R14R15R16R17R18R19R20R21R22
+        R24R25R26  0  0  0  0  0  0  0  0  0  0  0  0  0  0
+          0  0  0  0  0  0  0  0  0  0  0  0  0  0  0  0  0
++         7  5  6  6  5  7  7  6  6  6  5  6  5  6  6  7  7
++         6  5  6  7  6  6  7  6  6  5  6  5  5  6  8  5  5
++         6  6  7  8  6  6  7  7  6  6  6  6  5  6  6  7  6
++         6  5  6  0  0  0  0  0  0  0  0  0  0  0  0  0  0
++         0  0  0  0  0  0  0  0  0  0  0  0  0  0  0  0  0
%c M  cc GPS ccc cccc cccc cccc cccc ccccc ccccc ccccc ccccc
%c cc cc ccc ccc cccc cccc cccc cccc ccccc ccccc ccccc ccccc
%f  0.0000000  0.000000000  0.00000000000  0.000000000000000
%f  0.0000000  0.000000000  0.00000000000  0.000000000000000
%i    0    0    0    0      0      0      0      0         0
%i    0    0    0    0      0      0      0      0         0
/* INFORMATION & ANALYSIS CENTER (IAC)      ULTRA-RAPID DATA
/* S/V CLOCKS ARE ALIGNED TO GNSS TIME                      
/* G:C1WC2W R:C1PC2P E:C1XC5X C:C2IC6I J:C1CC2S             
/* PCV:IGS20_2317 OL/AL:FES2004  NONE     YN ORB:CoN CLK:CoN
*  2024 06 23 15  0  0.00000000
PG02  22734.624640  13620.909717   3899.099311   -412.309483
PG03  13262.705561   7073.712827  21750.251973    426.998703
PG04  22888.473492   2853.708488  13307.096529    389.315694
PG05  -6648.576092 -21354.889286 -14441.780263   -177.335820
PG06   3989.271901 -15351.572565  21342.172257    202.188625
PG07  19404.500258    183.274373 -17814.249083    -85.582080
PG08  14972.562601   9568.746034 -19975.751790    243.308665
PG09  25421.864484  -7384.287178   2404.643405    245.923430
PG10 -10481.541015  22573.760810  -8584.634716    -49.350830
PG11  -8619.000059 -21315.055183  13371.614883   -691.449350
PG12 -12262.245503 -10297.704002  20918.777662   -516.526749
PG13  -5769.229893 -14173.026063 -21937.926830    659.916820
PG14  13208.184700 -19687.677240 -11714.701823    432.338610
PG15 -15988.780993  -8377.556096 -20043.550942    173.344731
PG16   2061.541302  23350.908255 -12374.635800   -256.236545
PG17  20127.217668 -13522.183860  11446.876984    690.068834
PG18 -18537.689615    542.705694 -19078.068866   -628.544173
PG19  12318.072714 -15149.255521  17642.341410    500.532161
PG20  -2627.596807 -26091.169474  -4634.996614    373.519099
PG21  21220.412970  16798.328738  -1377.897101    113.555598
PG22   9914.127029 -24500.796719  -3486.884637    -30.991199
PG23 -14520.311441  12955.894335 -17958.302287    257.265057
PG24 -21926.377903 -15348.992608    638.755900   -479.530300
PG25 -15584.567890   1279.722237  21106.919411    497.722039
PG26  -4190.360027  25978.298844   1365.021950    132.131208
PG27   3070.186357  15087.927590 -21908.427844    -29.178761
PG28  -6126.056821  14398.332583  21451.544110   -301.535930
PG29 -25946.990388   2866.241256   5185.887162   -592.902115
PG30  11790.572228 -10483.853045 -21226.775740   -369.513233
PG31   4207.893478  19952.269432  16590.975199   -227.231465
PG32 -17572.233157  15386.976272  12669.391152   -615.245696
PR01  -3365.362165 -11323.103675 -22605.262070     89.277775
PR02 -16300.641390   1616.488208 -19484.454930    -23.399233
PR03 -20617.789249  14024.455294  -5188.574471    102.618301
PR04 -13773.973456  18122.599974  11530.299609    242.418627
PR05    525.862120  12716.858407  22113.816623    133.535266
PR07  20619.917559 -14359.560004   4575.513755     85.186162
PR08  13498.312835 -18264.661983 -11584.874675     -5.268359
PR09  12208.217225  10574.774340 -19749.753480    193.838333
PR11   2460.750471 -21557.233447 -13381.956717     20.476887
PR12  -7082.165587 -23833.531768   5751.465587     41.653098
PR13 -11576.353255 -13270.386544  18446.005261    -48.613182
PR14  -9494.948319   8103.135829  22265.732983     26.632504
PR15  -1863.835509  22448.148673  12004.299669     78.551540
PR16   7029.693152  23919.395588  -5476.445700     26.754236
PR17 -19207.024609   1017.496948 -16777.544959     98.426362
PR18  -4554.219615   9500.662124 -23220.452473    148.451914
PR19  10359.775174  13585.164709 -18944.764105   -281.356544
PR20  23439.141326  10110.122935   -253.659153   -114.958807
PR21  19350.257745   -628.867852  16584.256209   -111.700949
PR22   3793.027055 -10255.565893  23067.067223     98.934278
PR24 -23944.278700  -8821.326779   -280.591777    -61.009073
PR25  19080.719660   -684.898625  16903.566848    -78.946547
PR26  14235.277068 -18374.467487 -10458.178264     -5.671640
*  2024 06 23 15 15  0.00000000
PG02  22802.464119  13925.131731   1066.613000   -412.303188
PG03  12797.277785   9508.076633  21106.829232    427.014539
PG04  21388.690374   3533.034056  15455.530426    389.322853
PG05  -6289.789786 -22817.633656 -12147.695726   -177.336335
PG06   5885.526953 -13783.758482  21975.480552    202.169158
PG07  20854.104031   1599.393127 -16113.880042    -85.573463
PG08  12862.679319  10512.715756 -20915.644859    243.324477
PG09  25102.964841  -6984.261372   5209.569848    245.936712
PG10 -10474.312109  21391.988677 -11193.568637    -49.358660
PG11  -7284.377995 -20335.128521  15517.294440   -691.456344
PG12 -11616.760626 -12609.068480  20018.597427   -516.529707
PG13  -3356.637603 -14696.450904 -22075.567913    659.919143
PG14  13171.521783 -18179.886652 -13986.344621    432.346818
PG15 -14066.726490  -9549.279098 -20946.218413    173.348962
PG16   1514.526131  24493.298392  -9895.933852   -256.227018
PG17  21237.885006 -13664.183293   8909.047998    690.063607
PG18 -20045.250675   -901.549113 -17492.396046   -628.548350
PG19  14256.981876 -15462.237630  15798.226909    500.536939
PG20  -2370.346186 -26468.872705  -1832.864114    373.518839
PG21  20828.011594  16743.422504  -4152.359773    113.553343
PG22   9983.881964 -23861.220478  -6254.169246    -30.995614
PG23 -14331.325068  10812.509352 -19480.451513    257.273189
PG24 -21724.887334 -15574.544416  -2136.389723   -479.532371
PG25 -15244.134989  -1204.982483  21377.415505    497.722480
PG26  -4526.328837  25609.952798   4157.381506    132.125372
PG27    784.436578  15900.868526 -21488.330088    -29.179830
PG28  -8096.144833  12901.818342  21748.467485   -301.550757
PG29 -25280.452986   2459.712033   7923.646980   -592.900374
PG30  13650.406808  -8894.002747 -20861.355860   -369.507551
PG31   2538.859236  18750.710143  18262.696734   -227.231291
PG32 -18853.762119  15638.536661  10226.816320   -615.244406
PR01  -1400.085797 -13229.920441 -21759.842021     89.278516
PR02 -14355.793806     23.349224 -21022.582490    -23.399129
PR03 -19890.644198  13580.122303  -8271.129840    102.619578
PR04 -14601.571350  19060.727273   8625.127441    242.419975
PR05  -1436.999298  14507.270901  20937.883224    133.536158
PR07  19952.052581 -13982.257611   7676.611664     85.187126
PR08  14342.266000 -19211.953383  -8695.700187     -5.268985
PR09  12808.526655  12823.889222 -17965.641183    193.839912
PR11   2741.466704 -19768.163486 -15859.520596     20.475923
PR12  -7316.948021 -24306.258420   2600.855680     41.653385
PR13 -12131.100401 -15347.985841  16361.063725    -48.614142
PR14 -10076.068056   5388.287608  22824.249704     26.632307
PR15  -2101.214918  20824.507932  14612.332390     78.551427
PR16   7281.961453  24357.732817  -2310.705493     26.754508
PR17 -21075.544522    538.204721 -14390.593771     98.429376
PR18  -7251.244641   8575.428553 -22889.049340    148.453569
PR19   8119.307287  12597.891005 -20644.501829   -281.358057
PR20  23304.090924   9818.930329  -3486.636060   -114.959326
PR21  21195.883400   -146.744863  14161.109943   -111.703630
PR22   6442.828709  -9259.147016  22900.610039     98.929826
PR24 -23840.175786  -8623.324988   2927.559337    -61.010444
PR25  20933.240540    -91.755391  14560.395354    -78.973988
PR26  14961.352913 -19229.526968  -7490.625843     -5.670941
EOF
